[
    {
        "Altitude(m)": 704091.0906586386,
        "Argument of Periapsis(deg)": 0.010251109067964361,
        "Eccentricity": 0.0,
        "Inclination(deg)": 45.0,
        "Latitude(deg)": -4.305007306537065,
        "Longitude(deg)": -139.98732033933283,
        "Mean Anomaly(deg)": -5.983705017267311,
        "RAAN(deg)": 324.9903232526876,
        "Satellite Name": "Constellation 1 1451",
        "Satellite Number": 1451,
        "Semi-Major Axis(m)": 7083131.272910544,
        "Time(s)": 171
    },
    {
        "Altitude(m)": 704083.4817300835,
        "Argument of Periapsis(deg)": 0.010311057074209765,
        "Eccentricity": 0.0,
        "Inclination(deg)": 45.0,
        "Latitude(deg)": -4.261921431187247,
        "Longitude(deg)": -139.9483399952745,
        "Mean Anomaly(deg)": -5.923003877017322,
        "RAAN(deg)": 324.99026666352205,
        "Satellite Name": "Constellation 1 1451",
        "Satellite Number": 1451,
        "Semi-Major Axis(m)": 7083131.272910544,
        "Time(s)": 172
    },
    {
        "Altitude(m)": 704075.8923719709,
        "Argument of Periapsis(deg)": 0.010371005080455171,
        "Eccentricity": 0.0,
        "Inclination(deg)": 45.0,
        "Latitude(deg)": -4.2188330122423015,
        "Longitude(deg)": -139.90936436656042,
        "Mean Anomaly(deg)": -5.862302736767488,
        "RAAN(deg)": 324.99021007435647,
        "Satellite Name": "Constellation 1 1451",
        "Satellite Number": 1451,
        "Semi-Major Axis(m)": 7083131.272910544,
        "Time(s)": 173
    },
    {
        "Altitude(m)": 704068.3225997969,
        "Argument of Periapsis(deg)": 0.010430953086700577,
        "Eccentricity": 0.0,
        "Inclination(deg)": 45.0,
        "Latitude(deg)": -4.175742075046352,
        "Longitude(deg)": -139.8703934044111,
        "Mean Anomaly(deg)": -5.801601596517601,
        "RAAN(deg)": 324.9901534851909,
        "Satellite Name": "Constellation 1 1451",
        "Satellite Number": 1451,
        "Semi-Major Axis(m)": 7083131.272910544,
        "Time(s)": 174
    },
    {
        "Altitude(m)": 704060.77242896,
        "Argument of Periapsis(deg)": 0.010490901092945983,
        "Eccentricity": 0.0,
        "Inclination(deg)": 45.0,
        "Latitude(deg)": -4.1326486449351005,
        "Longitude(deg)": -139.83142706005702,
        "Mean Anomaly(deg)": -5.740900456267715,
        "RAAN(deg)": 324.9900968960253,
        "Satellite Name": "Constellation 1 1451",
        "Satellite Number": 1451,
        "Semi-Major Axis(m)": 7083131.272910544,
        "Time(s)": 175
    },
    {
        "Altitude(m)": 704053.2418747663,
        "Argument of Periapsis(deg)": 0.010550849099191389,
        "Eccentricity": 0.0,
        "Inclination(deg)": 45.0,
        "Latitude(deg)": -4.089552747235562,
        "Longitude(deg)": -139.7924652847387,
        "Mean Anomaly(deg)": -5.680199316017777,
        "RAAN(deg)": 324.9900403068597,
        "Satellite Name": "Constellation 1 1451",
        "Satellite Number": 1451,
        "Semi-Major Axis(m)": 7083131.272910544,
        "Time(s)": 176
    },
    {
        "Altitude(m)": 704045.7309524405,
        "Argument of Periapsis(deg)": 0.010610797105436795,
        "Eccentricity": 0.0,
        "Inclination(deg)": 45.0,
        "Latitude(deg)": -4.046454407266581,
        "Longitude(deg)": -139.75350802970672,
        "Mean Anomaly(deg)": -5.619498175767941,
        "RAAN(deg)": 324.9899837176942,
        "Satellite Name": "Constellation 1 1451",
        "Satellite Number": 1451,
        "Semi-Major Axis(m)": 7083131.272910544,
        "Time(s)": 177
    },
    {
        "Altitude(m)": 704038.2396771065,
        "Argument of Periapsis(deg)": 0.0106707451116822,
        "Eccentricity": 0.0,
        "Inclination(deg)": 45.0,
        "Latitude(deg)": -4.003353650338132,
        "Longitude(deg)": -139.71455541431806,
        "Mean Anomaly(deg)": -5.558797035518004,
        "RAAN(deg)": 324.9899271285286,
        "Satellite Name": "Constellation 1 1451",
        "Satellite Number": 1451,
        "Semi-Major Axis(m)": 7083131.272910544,
        "Time(s)": 178
    },
    {
        "Altitude(m)": 704030.7680638017,
        "Argument of Periapsis(deg)": 0.010730693117927606,
        "Eccentricity": 0.0,
        "Inclination(deg)": 45.0,
        "Latitude(deg)": -3.960250501753062,
        "Longitude(deg)": -139.6756070536486,
        "Mean Anomaly(deg)": -5.498095895268168,
        "RAAN(deg)": 324.989870539363,
        "Satellite Name": "Constellation 1 1451",
        "Satellite Number": 1451,
        "Semi-Major Axis(m)": 7083131.272910544,
        "Time(s)": 179
    },
    {
        "Altitude(m)": 704023.3161274709,
        "Argument of Periapsis(deg)": 0.01079064112417301,
        "Eccentricity": 0.0,
        "Inclination(deg)": 45.0,
        "Latitude(deg)": -3.9171449868048978,
        "Longitude(deg)": -139.63666306707452,
        "Mean Anomaly(deg)": -5.437394755018231,
        "RAAN(deg)": 324.98981395019746,
        "Satellite Name": "Constellation 1 1451",
        "Satellite Number": 1451,
        "Semi-Major Axis(m)": 7083131.272910544,
        "Time(s)": 180
    },
    {
        "Altitude(m)": 704015.8838829722,
        "Argument of Periapsis(deg)": 0.010850589130418416,
        "Eccentricity": 0.0,
        "Inclination(deg)": 45.0,
        "Latitude(deg)": -3.874037130779706,
        "Longitude(deg)": -139.59772340588475,
        "Mean Anomaly(deg)": -5.3766936147682935,
        "RAAN(deg)": 324.9897573610319,
        "Satellite Name": "Constellation 1 1451",
        "Satellite Number": 1451,
        "Semi-Major Axis(m)": 7083131.272910544,
        "Time(s)": 181
    },
    {
        "Altitude(m)": 704008.471345066,
        "Argument of Periapsis(deg)": 0.01091053713666382,
        "Eccentricity": 0.0,
        "Inclination(deg)": 45.0,
        "Latitude(deg)": -3.830926958955556,
        "Longitude(deg)": -139.55878802137732,
        "Mean Anomaly(deg)": -5.315992474518406,
        "RAAN(deg)": 324.98970077186635,
        "Satellite Name": "Constellation 1 1451",
        "Satellite Number": 1451,
        "Semi-Major Axis(m)": 7083131.272910544,
        "Time(s)": 182
    },
    {
        "Altitude(m)": 704001.0785284241,
        "Argument of Periapsis(deg)": 0.010970485142909228,
        "Eccentricity": 0.0,
        "Inclination(deg)": 45.0,
        "Latitude(deg)": -3.7878144966025094,
        "Longitude(deg)": -139.51985686485966,
        "Mean Anomaly(deg)": -5.255291334268571,
        "RAAN(deg)": 324.9896441827008,
        "Satellite Name": "Constellation 1 1451",
        "Satellite Number": 1451,
        "Semi-Major Axis(m)": 7083131.272910544,
        "Time(s)": 183
    },
    {
        "Altitude(m)": 703993.705447628,
        "Argument of Periapsis(deg)": 0.011030433149154634,
        "Eccentricity": 0.0,
        "Inclination(deg)": 45.0,
        "Latitude(deg)": -3.7446997689828234,
        "Longitude(deg)": -139.4809298876481,
        "Mean Anomaly(deg)": -5.194590194018583,
        "RAAN(deg)": 324.98958759353513,
        "Satellite Name": "Constellation 1 1451",
        "Satellite Number": 1451,
        "Semi-Major Axis(m)": 7083131.272910544,
        "Time(s)": 184
    },
    {
        "Altitude(m)": 703986.3521171735,
        "Argument of Periapsis(deg)": 0.01109038115540004,
        "Eccentricity": 0.0,
        "Inclination(deg)": 45.0,
        "Latitude(deg)": -3.701582801351071,
        "Longitude(deg)": -139.4420072091652,
        "Mean Anomaly(deg)": -5.1338890537686455,
        "RAAN(deg)": 324.9895310043696,
        "Satellite Name": "Constellation 1 1451",
        "Satellite Number": 1451,
        "Semi-Major Axis(m)": 7083131.272910544,
        "Time(s)": 185
    },
    {
        "Altitude(m)": 703979.0185514515,
        "Argument of Periapsis(deg)": 0.011150329161645444,
        "Eccentricity": 0.0,
        "Inclination(deg)": 45.0,
        "Latitude(deg)": -3.6584636189549684,
        "Longitude(deg)": -139.40308844455146,
        "Mean Anomaly(deg)": -5.073187913518861,
        "RAAN(deg)": 324.98947441520403,
        "Satellite Name": "Constellation 1 1451",
        "Satellite Number": 1451,
        "Semi-Major Axis(m)": 7083131.272910544,
        "Time(s)": 186
    },
    {
        "Altitude(m)": 703971.704764772,
        "Argument of Periapsis(deg)": 0.01121027716789085,
        "Eccentricity": 0.0,
        "Inclination(deg)": 45.0,
        "Latitude(deg)": -3.6153422470335714,
        "Longitude(deg)": -139.3641737132468,
        "Mean Anomaly(deg)": -5.012486773268924,
        "RAAN(deg)": 324.9894178260385,
        "Satellite Name": "Constellation 1 1451",
        "Satellite Number": 1451,
        "Semi-Major Axis(m)": 7083131.272910544,
        "Time(s)": 187
    },
    {
        "Altitude(m)": 703964.4107713562,
        "Argument of Periapsis(deg)": 0.011270225174136258,
        "Eccentricity": 0.0,
        "Inclination(deg)": 45.0,
        "Latitude(deg)": -3.5722187108192225,
        "Longitude(deg)": -139.32526296660322,
        "Mean Anomaly(deg)": -4.951785633018987,
        "RAAN(deg)": 324.9893612368729,
        "Satellite Name": "Constellation 1 1451",
        "Satellite Number": 1451,
        "Semi-Major Axis(m)": 7083131.272910544,
        "Time(s)": 188
    },
    {
        "Altitude(m)": 703957.1365853224,
        "Argument of Periapsis(deg)": 0.011330173180381662,
        "Eccentricity": 0.0,
        "Inclination(deg)": 45.0,
        "Latitude(deg)": -3.5290930355368055,
        "Longitude(deg)": -139.2863561559813,
        "Mean Anomaly(deg)": -4.891084492769049,
        "RAAN(deg)": 324.9893046477074,
        "Satellite Name": "Constellation 1 1451",
        "Satellite Number": 1451,
        "Semi-Major Axis(m)": 7083131.272910544,
        "Time(s)": 189
    }
]